CCSDS_OMM_VERS = 2.0
CREATION_DATE  = 
ORIGINATOR     = 

OBJECT_NAME    = SL-4 R/B
OBJECT_ID      = 2014-021B
CENTER_NAME    = EARTH
REF_FRAME      = TEME
TIME_SYSTEM    = UTC
MEAN_ELEMENT_THEORY = SGP/SGP4

EPOCH          = 2026-01-22T21:32:22.673760
MEAN_MOTION    = 15.37736454
ECCENTRICITY   = .00991346
INCLINATION    = 51.6058
RA_OF_ASC_NODE = 200.4180
ARG_OF_PERICENTER = 295.8250
MEAN_ANOMALY   = 63.2534

EPHEMERIS_TYPE = 0
CLASSIFICATION_TYPE = U
NORAD_CAT_ID   = 39679
ELEMENT_SET_NO = 999
REV_AT_EPOCH   = 64922
BSTAR          = .29908209E-3
MEAN_MOTION_DOT = .12895E-3
MEAN_MOTION_DDOT = 0

CCSDS_OMM_VERS = 2.0
CREATION_DATE  = 
ORIGINATOR     = 

OBJECT_NAME    = ALOS-2
OBJECT_ID      = 2014-029A
CENTER_NAME    = EARTH
REF_FRAME      = TEME
TIME_SYSTEM    = UTC
MEAN_ELEMENT_THEORY = SGP/SGP4

EPOCH          = 2026-01-22T22:21:16.296768
MEAN_MOTION    = 14.79458350
ECCENTRICITY   = .0001483
INCLINATION    = 97.9201
RA_OF_ASC_NODE = 122.1859
ARG_OF_PERICENTER = 101.9594
MEAN_ANOMALY   = 258.1784

EPHEMERIS_TYPE = 0
CLASSIFICATION_TYPE = U
NORAD_CAT_ID   = 39766
ELEMENT_SET_NO = 999
REV_AT_EPOCH   = 63010
BSTAR          = .12994302E-3
MEAN_MOTION_DOT = .919E-5
MEAN_MOTION_DDOT = 0

CCSDS_OMM_VERS = 2.0
CREATION_DATE  = 
ORIGINATOR     = 

OBJECT_NAME    = YAOGAN-29
OBJECT_ID      = 2015-069A
CENTER_NAME    = EARTH
REF_FRAME      = TEME
TIME_SYSTEM    = UTC
MEAN_ELEMENT_THEORY = SGP/SGP4

EPOCH          = 2026-01-22T23:31:15.666816
MEAN_MOTION    = 14.82940246
ECCENTRICITY   = .00026952
INCLINATION    = 98.0185
RA_OF_ASC_NODE = 51.2780
ARG_OF_PERICENTER = 113.2022
MEAN_ANOMALY   = 246.9475

EPHEMERIS_TYPE = 0
CLASSIFICATION_TYPE = U
NORAD_CAT_ID   = 41038
ELEMENT_SET_NO = 999
REV_AT_EPOCH   = 54910
BSTAR          = .19700722E-3
MEAN_MOTION_DOT = .1544E-4
MEAN_MOTION_DDOT = 0

CCSDS_OMM_VERS = 2.0
CREATION_DATE  = 
ORIGINATOR     = 

OBJECT_NAME    = ASTRO-H (HITOMI)
OBJECT_ID      = 2016-012A
CENTER_NAME    = EARTH
REF_FRAME      = TEME
TIME_SYSTEM    = UTC
MEAN_ELEMENT_THEORY = SGP/SGP4

EPOCH          = 2026-01-22T21:15:34.945632
MEAN_MOTION    = 15.09655399
ECCENTRICITY   = .00098686
INCLINATION    = 31.0000
RA_OF_ASC_NODE = 292.0558
ARG_OF_PERICENTER = 233.3289
MEAN_ANOMALY   = 126.6442

EPHEMERIS_TYPE = 0
CLASSIFICATION_TYPE = U
NORAD_CAT_ID   = 41337
ELEMENT_SET_NO = 999
REV_AT_EPOCH   = 54530
BSTAR          = .21115195E-3
MEAN_MOTION_DOT = .358E-4
MEAN_MOTION_DDOT = 0

CCSDS_OMM_VERS = 2.0
CREATION_DATE  = 
ORIGINATOR     = 

OBJECT_NAME    = HXMT (HUIYAN)
OBJECT_ID      = 2017-034A
CENTER_NAME    = EARTH
REF_FRAME      = TEME
TIME_SYSTEM    = UTC
MEAN_ELEMENT_THEORY = SGP/SGP4

EPOCH          = 2026-01-22T22:56:02.748768
MEAN_MOTION    = 15.16841364
ECCENTRICITY   = .00331697
INCLINATION    = 43.0139
RA_OF_ASC_NODE = 270.8195
ARG_OF_PERICENTER = 303.9974
MEAN_ANOMALY   = 55.7724

EPHEMERIS_TYPE = 0
CLASSIFICATION_TYPE = U
NORAD_CAT_ID   = 42758
ELEMENT_SET_NO = 999
REV_AT_EPOCH   = 47559
BSTAR          = .36140639E-3
MEAN_MOTION_DOT = .7105E-4
MEAN_MOTION_DDOT = 0

CCSDS_OMM_VERS = 2.0
CREATION_DATE  = 
ORIGINATOR     = 

OBJECT_NAME    = CZ-2C R/B
OBJECT_ID      = 2018-054D
CENTER_NAME    = EARTH
REF_FRAME      = TEME
TIME_SYSTEM    = UTC
MEAN_ELEMENT_THEORY = SGP/SGP4

EPOCH          = 2026-01-22T22:40:01.485696
MEAN_MOTION    = 15.86394189
ECCENTRICITY   = .00122523
INCLINATION    = 35.1312
RA_OF_ASC_NODE = 259.2455
ARG_OF_PERICENTER = 217.9171
MEAN_ANOMALY   = 142.0704

EPHEMERIS_TYPE = 0
CLASSIFICATION_TYPE = U
NORAD_CAT_ID   = 43521
ELEMENT_SET_NO = 999
REV_AT_EPOCH   = 42157
BSTAR          = .72376671E-3
MEAN_MOTION_DOT = .194637E-2
MEAN_MOTION_DDOT = 0

CCSDS_OMM_VERS = 2.0
CREATION_DATE  = 
ORIGINATOR     = 

OBJECT_NAME    = SAOCOM 1A
OBJECT_ID      = 2018-076A
CENTER_NAME    = EARTH
REF_FRAME      = TEME
TIME_SYSTEM    = UTC
MEAN_ELEMENT_THEORY = SGP/SGP4

EPOCH          = 2026-01-22T23:43:13.444320
MEAN_MOTION    = 14.82162448
ECCENTRICITY   = .00014726
INCLINATION    = 97.8852
RA_OF_ASC_NODE = 211.8116
ARG_OF_PERICENTER = 83.0503
MEAN_ANOMALY   = 277.0877

EPHEMERIS_TYPE = 0
CLASSIFICATION_TYPE = U
NORAD_CAT_ID   = 43641
ELEMENT_SET_NO = 999
REV_AT_EPOCH   = 39459
BSTAR          = .128467E-3
MEAN_MOTION_DOT = .971E-5
MEAN_MOTION_DDOT = 0

CCSDS_OMM_VERS = 2.0
CREATION_DATE  = 
ORIGINATOR     = 

OBJECT_NAME    = H-2A R/B
OBJECT_ID      = 2018-084L
CENTER_NAME    = EARTH
REF_FRAME      = TEME
TIME_SYSTEM    = UTC
MEAN_ELEMENT_THEORY = SGP/SGP4

EPOCH          = 2026-01-22T13:03:24.071040
MEAN_MOTION    = 15.39186393
ECCENTRICITY   = .00259924
INCLINATION    = 98.8756
RA_OF_ASC_NODE = 230.1415
ARG_OF_PERICENTER = 182.1204
MEAN_ANOMALY   = 177.9931

EPHEMERIS_TYPE = 0
CLASSIFICATION_TYPE = U
NORAD_CAT_ID   = 43682
ELEMENT_SET_NO = 999
REV_AT_EPOCH   = 39867
BSTAR          = .58403163E-3
MEAN_MOTION_DOT = .22888E-3
MEAN_MOTION_DDOT = 0

CCSDS_OMM_VERS = 2.0
CREATION_DATE  = 
ORIGINATOR     = 

OBJECT_NAME    = SAOCOM 1B
OBJECT_ID      = 2020-059A
CENTER_NAME    = EARTH
REF_FRAME      = TEME
TIME_SYSTEM    = UTC
MEAN_ELEMENT_THEORY = SGP/SGP4

EPOCH          = 2026-01-22T22:50:56.034816
MEAN_MOTION    = 14.82166800
ECCENTRICITY   = .00014095
INCLINATION    = 97.8850
RA_OF_ASC_NODE = 210.8745
ARG_OF_PERICENTER = 88.3749
MEAN_ANOMALY   = 271.7626

EPHEMERIS_TYPE = 0
CLASSIFICATION_TYPE = U
NORAD_CAT_ID   = 46265
ELEMENT_SET_NO = 999
REV_AT_EPOCH   = 29197
BSTAR          = .26648619E-3
MEAN_MOTION_DOT = .207E-4
MEAN_MOTION_DDOT = 0

CCSDS_OMM_VERS = 2.0
CREATION_DATE  = 
ORIGINATOR     = 

OBJECT_NAME    = CSS (TIANHE)
OBJECT_ID      = 2021-035A
CENTER_NAME    = EARTH
REF_FRAME      = TEME
TIME_SYSTEM    = UTC
MEAN_ELEMENT_THEORY = SGP/SGP4

EPOCH          = 2026-01-22T16:28:13.485216
MEAN_MOTION    = 15.60906900
ECCENTRICITY   = .0010413
INCLINATION    = 41.4670
RA_OF_ASC_NODE = 127.8030
ARG_OF_PERICENTER = 338.7052
MEAN_ANOMALY   = 21.3352

EPHEMERIS_TYPE = 0
CLASSIFICATION_TYPE = U
NORAD_CAT_ID   = 48274
ELEMENT_SET_NO = 999
REV_AT_EPOCH   = 27042
BSTAR          = .25973579E-3
MEAN_MOTION_DOT = .22143E-3
MEAN_MOTION_DDOT = 0

CCSDS_OMM_VERS = 2.0
CREATION_DATE  = 
ORIGINATOR     = 

OBJECT_NAME    = CZ-2C R/B
OBJECT_ID      = 2022-058K
CENTER_NAME    = EARTH
REF_FRAME      = TEME
TIME_SYSTEM    = UTC
MEAN_ELEMENT_THEORY = SGP/SGP4

EPOCH          = 2026-01-22T11:51:56.226528
MEAN_MOTION    = 15.50970553
ECCENTRICITY   = .00426257
INCLINATION    = 50.1891
RA_OF_ASC_NODE = 195.3354
ARG_OF_PERICENTER = 6.0310
MEAN_ANOMALY   = 354.1164

EPHEMERIS_TYPE = 0
CLASSIFICATION_TYPE = U
NORAD_CAT_ID   = 52794
ELEMENT_SET_NO = 999
REV_AT_EPOCH   = 20295
BSTAR          = .50475895E-3
MEAN_MOTION_DOT = .30635E-3
MEAN_MOTION_DDOT = 0

