SL-4 R/B                
1 39679U 14021B   26022.89748465  .00012895  00000+0  29908-3 0  9990
2 39679  51.6058 200.4180 0099134 295.8250  63.2534 15.37736454649224
ALOS-2                  
1 39766U 14029A   26022.93143862  .00000919  00000+0  12994-3 0  9991
2 39766  97.9201 122.1859 0001483 101.9594 258.1784 14.79458350630105
YAOGAN-29               
1 41038U 15069A   26022.98004244  .00001544  00000+0  19701-3 0  9994
2 41038  98.0185  51.2780 0002695 113.2022 246.9475 14.82940246549101
ASTRO-H (HITOMI)        
1 41337U 16012A   26022.88582113  .00003580  00000+0  21115-3 0  9994
2 41337  31.0000 292.0558 0009868 233.3289 126.6442 15.09655399545300
HXMT (HUIYAN)           
1 42758U 17034A   26022.95558737  .00007105  00000+0  36141-3 0  9992
2 42758  43.0139 270.8195 0033169 303.9974  55.7724 15.16841364475596
CZ-2C R/B               
1 43521U 18054D   26022.94446164  .00194637  00000+0  72377-3 0  9991
2 43521  35.1312 259.2455 0012252 217.9171 142.0704 15.86394189421575
SAOCOM 1A               
1 43641U 18076A   26022.98835005  .00000971  00000+0  12847-3 0  9991
2 43641  97.8852 211.8116 0001472  83.0503 277.0877 14.82162448394590
H-2A R/B                
1 43682U 18084L   26022.54402860  .00022888  00000+0  58403-3 0  9995
2 43682  98.8756 230.1415 0025992 182.1204 177.9931 15.39186393398677
SAOCOM 1B               
1 46265U 20059A   26022.95203744  .00002070  00000+0  26649-3 0  9993
2 46265  97.8850 210.8745 0001409  88.3749 271.7626 14.82166800291977
CSS (TIANHE)            
1 48274U 21035A   26022.68626719  .00022143  00000+0  25974-3 0  9994
2 48274  41.4670 127.8030 0010413 338.7052  21.3352 15.60906900270424
CZ-2C R/B               
1 52794U 22058K   26022.49440077  .00030635  00000+0  50476-3 0  9992
2 52794  50.1891 195.3354 0042625   6.0310 354.1164 15.50970553202954
